[{"OBJECT_NAME":"ONEWEB-0586","OBJECT_ID":"2022-166M","EPOCH":"2026-03-09T23:05:49.255296","MEAN_MOTION":13.21825133,"ECCENTRICITY":0.00014412,"INCLINATION":87.9165,"RA_OF_ASC_NODE":263.7821,"ARG_OF_PERICENTER":94.3668,"MEAN_ANOMALY":265.763,"EPHEMERIS_TYPE":0,"CLASSIFICATION_TYPE":"U","NORAD_CAT_ID":54653,"ELEMENT_SET_NO":999,"REV_AT_EPOCH":15841,"BSTAR":7.3401669e-5,"MEAN_MOTION_DOT":4.3e-7,"MEAN_MOTION_DDOT":0},{"OBJECT_NAME":"COURIER 1B","OBJECT_ID":"1960-013A","EPOCH":"2026-03-09T21:48:17.836128","MEAN_MOTION":13.46425856,"ECCENTRICITY":0.01648041,"INCLINATION":28.327,"RA_OF_ASC_NODE":283.4923,"ARG_OF_PERICENTER":105.7353,"MEAN_ANOMALY":256.1434,"EPHEMERIS_TYPE":0,"CLASSIFICATION_TYPE":"U","NORAD_CAT_ID":58,"ELEMENT_SET_NO":999,"REV_AT_EPOCH":22067,"BSTAR":7.8494593e-5,"MEAN_MOTION_DOT":1.36e-6,"MEAN_MOTION_DDOT":0}]
